spkid,a,e,i,om,w,ma,epoch,diameter,spec_B
2310402,1.669125423,0.281418728,30.98991104,355.4827569,192.9842404,290.9914383,2459000.5,0,S
2322652,2.65055362,0.574782474,24.36004128,80.04313275,205.9455486,306.348446,2459000.5,0,S
2350513,2.658448427,0.56073987,12.57110819,147.5341322,79.65804058,218.7632144,2459000.5,1.77,X
2354127,1.696768861,0.394410915,30.25092144,347.3490243,202.7805251,83.41964457,2459000.5,0,X
2357022,1.284745431,0.32946307,34.51918849,293.2784217,250.218718,315.5665247,2459000.5,0.432,S
2370061,1.815245628,0.693511948,54.61152483,262.6306489,309.3414757,301.6603833,2459000.5,0,C
2380188,2.691101549,0.575773726,9.973303792,251.6210087,249.4395004,131.2048143,2459000.5,1.312,X
2415690,3.10449213,0.567648239,16.24373738,70.58641632,294.561673,42.31913754,2459000.5,0,X
2446804,1.732967524,0.370791092,19.47828962,58.0603241,43.65698837,337.2481689,2459000.5,0,C
2455213,2.278057963,0.473140199,9.355616135,32.19239723,2.990349482,145.0932038,2459000.5,0,S
2474158,1.078248321,0.132787949,12.02841629,166.0956241,296.9801278,36.72297171,2459000.5,0,S
2516398,1.525420596,0.253004692,18.98724023,56.50534516,194.8329779,29.21877502,2459000.5,0,X
2523804,1.491418287,0.371359192,6.300161481,124.8498779,27.94416889,210.7313817,2459000.5,0,S
2524392,2.019808835,0.754015562,9.178274843,354.742368,21.59788231,169.0918987,2459000.5,0,X
3024682,3.215547562,0.618614137,6.882561957,40.43648007,349.3647839,207.3732289,2459000.5,0,X
3029650,1.164608885,0.137731743,4.459358712,271.6260991,150.3144087,120.2105666,2459000.5,0,S
3034813,2.60102368,0.58681156,17.69655385,129.5833392,351.5025389,308.4687812,2459000.5,0,X
3043880,2.113083927,0.430160742,6.922631505,134.0583563,160.5714758,167.1964151,2459000.5,0,S
3076550,1.431987505,0.298550816,18.27543697,79.41825038,71.77397327,87.13256349,2459000.5,0,S
3065824,1.029892263,0.156627635,20.13596503,74.51792417,214.5730704,10.07467225,2459000.5,0,S
3076783,2.436455857,0.574549869,6.85432046,114.2351055,99.77109918,3.886083176,2459000.5,0,X
3092381,2.357584548,0.52185763,2.526530766,356.6820945,73.50282454,34.47848253,2459000.5,0,X
3092397,2.743003449,0.627221077,30.45115036,28.37403557,23.95861076,356.1210587,2452206.5,0,X
3092504,2.04166931,0.426427187,15.03937211,80.79253013,16.98771096,113.560925,2459000.5,0,X
3102739,2.661363662,0.607511154,11.65673838,325.769665,159.5796296,69.25187656,2459000.5,0,S
3102771,1.176788553,0.247510278,7.611797293,297.6877294,247.1097012,95.72973607,2459000.5,0,X
3102780,2.062619898,0.456102736,2.662667047,118.838168,58.12423396,51.75272556,2459000.5,0,S
3102786,1.832967848,0.444295481,16.21773415,319.6152383,180.5025962,134.5968647,2459000.5,0.84,X
3448992,1.240966839,0.20484785,13.74330014,161.916928,13.91936351,39.79348545,2459000.5,0,S
